[{"OBJECT_NAME":"STARLINK-32643","OBJECT_ID":"2024-231R","EPOCH":"2026-03-09T15:47:30.413760","MEAN_MOTION":15.30202978,"ECCENTRICITY":9.939e-5,"INCLINATION":53.1595,"RA_OF_ASC_NODE":206.9878,"ARG_OF_PERICENTER":59.5811,"MEAN_ANOMALY":300.5288,"EPHEMERIS_TYPE":0,"CLASSIFICATION_TYPE":"U","NORAD_CAT_ID":62233,"ELEMENT_SET_NO":999,"REV_AT_EPOCH":7193,"BSTAR":0.00091721789,"MEAN_MOTION_DOT":0.00026907,"MEAN_MOTION_DDOT":0},{"OBJECT_NAME":"KUIPER-00213","OBJECT_ID":"2026-030P","EPOCH":"2026-03-09T22:00:01.999584","MEAN_MOTION":15.32626943,"ECCENTRICITY":0.00152813,"INCLINATION":51.8816,"RA_OF_ASC_NODE":218.5142,"ARG_OF_PERICENTER":64.2462,"MEAN_ANOMALY":206.8369,"EPHEMERIS_TYPE":0,"CLASSIFICATION_TYPE":"U","NORAD_CAT_ID":67777,"ELEMENT_SET_NO":999,"REV_AT_EPOCH":502,"BSTAR":0.0016072376,"MEAN_MOTION_DOT":0.00051551,"MEAN_MOTION_DDOT":0}]
